{
    "links": {
        "self": "http://www.neowsapp.com/rest/v1/neo/3771634?api_key=iIulBulltgU6a56xZRHN4H3l9WmuAYTsLGpBGhQ2"
    },
    "id": "3771634",
    "neo_reference_id": "3771634",
    "name": "(2017 FY2)",
    "designation": "2017 FY2",
    "nasa_jpl_url": "http://ssd.jpl.nasa.gov/sbdb.cgi?sstr=3771634",
    "absolute_magnitude_h": 23.4,
    "estimated_diameter": {
        "kilometers": {
            "estimated_diameter_min": 0.0555334912,
            "estimated_diameter_max": 0.1241766613
        },
        "meters": {
            "estimated_diameter_min": 55.5334911581,
            "estimated_diameter_max": 124.1766612574
        },
        "miles": {
            "estimated_diameter_min": 0.0345069009,
            "estimated_diameter_max": 0.0771597762
        },
        "feet": {
            "estimated_diameter_min": 182.1964991311,
            "estimated_diameter_max": 407.4037573197
        }
    },
    "is_potentially_hazardous_asteroid": false,
    "close_approach_data": [
        {
            "close_approach_date": "2017-03-25",
            "close_approach_date_full": "2017-Mar-25 01:41",
            "epoch_date_close_approach": 1490406060000,
            "relative_velocity": {
                "kilometers_per_second": "12.5912573366",
                "kilometers_per_hour": "45328.5264118774",
                "miles_per_hour": "28165.3835363135"
            },
            "miss_distance": {
                "astronomical": "0.3157285798",
                "lunar": "122.8184175422",
                "kilometers": "47232323.036205026",
                "miles": "29348804.6125443188"
            },
            "orbiting_body": "Earth"
        }
    ],
    "orbital_data": {
        "orbit_id": "6",
        "orbit_determination_date": "2017-04-14 06:13:36",
        "first_observation_date": "2017-03-18",
        "last_observation_date": "2017-03-27",
        "data_arc_in_days": 9,
        "observations_used": 20,
        "orbit_uncertainty": "9",
        "minimum_orbit_intersection": ".311253",
        "jupiter_tisserand_invariant": "4.098",
        "epoch_osculation": "2457832.5",
        "eccentricity": ".2360387530090072",
        "semi_major_axis": "1.682215416745351",
        "inclination": "24.5949069255252",
        "ascending_node_longitude": "358.1235421288109",
        "orbital_period": "796.9312186450037",
        "perihelion_distance": "1.285147387484251",
        "perihelion_argument": "209.0804486915522",
        "aphelion_distance": "2.079283446006451",
        "perihelion_time": "2457870.665496862650",
        "mean_anomaly": "342.7593918407225",
        "mean_motion": ".4517328366331241",
        "equinox": "J2000",
        "orbit_class": {
            "orbit_class_type": "AMO",
            "orbit_class_description": "Near-Earth asteroid orbits similar to that of 1221 Amor",
            "orbit_class_range": "1.017 AU < q (perihelion) < 1.3 AU"
        }
    },
    "is_sentry_object": false
}